[{"OBJECT_NAME":"ZHANGHENG 1-02 (CSES-2)","OBJECT_ID":"2025-128A","EPOCH":"2026-03-07T17:41:43.439712","MEAN_MOTION":15.21023059,"ECCENTRICITY":0.00142277,"INCLINATION":97.3434,"RA_OF_ASC_NODE":195.9568,"ARG_OF_PERICENTER":108.2865,"MEAN_ANOMALY":251.992,"EPHEMERIS_TYPE":0,"CLASSIFICATION_TYPE":"U","NORAD_CAT_ID":64393,"ELEMENT_SET_NO":999,"REV_AT_EPOCH":4050,"BSTAR":1.646985e-6,"MEAN_MOTION_DOT":-3.1e-7,"MEAN_MOTION_DDOT":0},{"OBJECT_NAME":"CZ-2C R\/B","OBJECT_ID":"2026-021B","EPOCH":"2026-03-09T21:51:23.415552","MEAN_MOTION":15.24093237,"ECCENTRICITY":0.01506252,"INCLINATION":97.65,"RA_OF_ASC_NODE":144.3935,"ARG_OF_PERICENTER":10.4871,"MEAN_ANOMALY":349.9447,"EPHEMERIS_TYPE":0,"CLASSIFICATION_TYPE":"U","NORAD_CAT_ID":67647,"ELEMENT_SET_NO":999,"REV_AT_EPOCH":573,"BSTAR":0.00038397881,"MEAN_MOTION_DOT":0.00012809,"MEAN_MOTION_DDOT":0}]
